IRIDIUM 39              
1 25042U 97069D   25304.14362203  .00000693  00000+0  17574-3 0  9993
2 25042  86.3925 152.8997 0016591 206.6841 153.3511 14.49411966468651
IRIDIUM 38              
1 25043U 97069E   25304.12180904  .00000556  00000+0  17643-3 0  9993
2 25043  86.4007 176.0228 0003265  50.1907 309.9578 14.38256143465491
IRIDIUM 42              
1 25077U 97077A   25304.22559808  .00000500  00000+0  16399-3 0  9999
2 25077  86.4018 182.3097 0002666  71.2062 288.9425 14.36482897460727
IRIDIUM 44              
1 25078U 97077B   25304.16008568  .00000542  00000+0  16466-3 0  9996
2 25078  86.3990 163.9223 0001238  24.0299 336.0958 14.40377635463271
IRIDIUM 45              
1 25104U 97082A   25304.15665113  .00032277  00000+0  98555-3 0  9995
2 25104  86.3579 341.6157 0104191 178.7370 181.4163 15.28475976472762
IRIDIUM 24              
1 25105U 97082B   25304.30413350  .00000674  00000+0  19844-3 0  9997
2 25105  86.3951  22.5482 0010979 359.3471   0.7713 14.42266566462831
IRIDIUM 51              
1 25262U 98018A   25304.17429353  .00074750  00000+0  10618-2 0  9991
2 25262  86.3800 347.9402 0066767  84.4586 276.4285 15.53490875468021
IRIDIUM 57              
1 25273U 98019B   25304.12751929  .00000557  00000+0  18518-3 0  9998
2 25273  86.3923  88.2632 0002052  87.8900 272.2532 14.35998937444296
